COSMOS 2251 DEB         
1 36372U 93036AYZ 17343.44281966  .00001143  00000-0  35147-3 0  9992
2 36372  74.0135 258.0804 0047736 294.6131  65.0056 14.42045636432548
